OBJECT_NAME,OBJECT_ID,EPOCH,MEAN_MOTION,ECCENTRICITY,INCLINATION,RA_OF_ASC_NODE,ARG_OF_PERICENTER,MEAN_ANOMALY,EPHEMERIS_TYPE,CLASSIFICATION_TYPE,NORAD_CAT_ID,ELEMENT_SET_NO,REV_AT_EPOCH,BSTAR,MEAN_MOTION_DOT,MEAN_MOTION_DDOT
INMARSAT 5-F3,2015-042A,2024-01-20T01:36:32.746752,1.00271091,.0000183,0.0187,63.7385,270.8679,348.0566,0,U,40882,999,3074,0,.55E-6,0
MUOS-4,2015-044A,2024-01-20T11:25:12.980352,1.00271610,.0055036,2.9204,28.3273,355.6424,341.6893,0,U,40887,999,3074,0,-.91E-6,0
BEIDOU-3S IGSO-2S,2015-053A,2024-01-17T14:30:45.749088,1.00252427,.0046153,50.5932,269.1737,191.7705,325.9662,0,U,40938,999,3051,0,-.107E-5,0
SKY MUSTER 1 (NBN1A),2015-054A,2024-01-19T23:41:53.076768,1.00271145,.0001866,0.0137,8.5637,285.8744,320.1305,0,U,40940,999,3044,0,-.274E-5,0
ARSAT 2,2015-054B,2024-01-20T03:36:41.789952,1.00276100,.0002116,0.0467,286.2235,352.7050,173.2559,0,U,40941,999,3050,0,-.22E-5,0
APSTAR 9,2015-059A,2024-01-20T13:50:42.489888,1.00269388,.0002862,0.0204,52.7909,197.8691,218.4686,0,U,40982,999,3031,0,-.262E-5,0
TURKSAT 4B,2015-060A,2024-01-20T11:18:04.411296,1.00268926,.0002333,0.0325,277.6416,12.8786,48.2979,0,U,40984,999,3028,0,.12E-5,0
CHINASAT 2C (ZX 2C),2015-063A,2024-01-20T12:27:42.858720,1.00273127,.0003164,0.0400,218.1963,172.4375,19.0847,0,U,41021,999,3018,0,-.32E-5,0
GSAT-15,2015-065A,2024-01-19T14:52:55.018272,1.00273532,.000201,0.0938,266.4220,350.9223,177.8563,0,U,41028,999,3004,0,-.253E-5,0
LAOSAT 1,2015-067A,2024-01-20T12:50:42.624384,1.00269460,.0002755,0.0327,166.6468,93.2215,180.7002,0,U,41034,999,3004,0,-.339E-5,0
TELSTAR 12V,2015-068A,2024-01-20T10:59:16.595808,1.00271323,.0002675,0.0147,72.1468,232.9542,324.0192,0,U,41036,999,2981,0,-.115E-5,0
ELEKTRO-L 2,2015-074A,2024-01-20T09:16:31.206720,1.00271188,.0003637,4.4620,81.2680,195.1254,327.5176,0,U,41105,999,2969,0,-.116E-5,0
COSMOS 2513,2015-075A,2024-01-20T11:26:50.723808,1.00271652,.0003026,0.0599,108.7208,188.3173,74.2400,0,U,41121,999,2971,0,-.134E-5,0
GAOFEN-4,2015-083A,2024-01-20T12:19:42.720960,1.00267591,.0002153,0.1453,86.5495,148.7635,174.6410,0,U,41194,999,2971,0,-.33E-5,0
IRNSS-1E,2016-003A,2024-01-18T14:50:58.693632,1.00274643,.0021818,31.2882,75.7390,189.5490,186.8229,0,U,41241,999,2937,0,-.315E-5,0
SES-9,2016-013A,2024-01-19T23:32:59.244864,1.00271247,.0000614,0.0404,281.3087,88.0987,210.9783,0,U,41380,999,2893,0,-.34E-5,0
EUTELSAT 65 WEST A,2016-014A,2024-01-20T10:51:30.996576,1.00273221,.0002058,0.0849,307.0559,349.5999,280.3150,0,U,41382,999,2873,0,-.272E-5,0
IRNSS-1F,2016-015A,2024-01-20T06:03:39.824064,1.00267503,.0021499,3.2298,123.6583,184.9694,293.8293,0,U,41384,999,2885,0,.16E-5,0
BEIDOU-2 IGSO-6,2016-021A,2024-01-20T13:00:32.582592,1.00256416,.0049449,58.9528,46.8512,225.5940,135.1077,0,U,41434,999,2867,0,-.14E-5,0
IRNSS-1G,2016-027A,2024-01-20T13:24:00.770400,1.00276171,.0003834,3.1142,125.0390,273.2787,51.5985,0,U,41469,999,2836,0,-.333E-5,0
JCSAT-2B,2016-028A,2024-01-20T13:42:43.085664,1.00269853,.0001198,0.0156,69.1538,222.8069,187.1129,0,U,41471,999,2831,0,-.162E-5,0
THAICOM 8,2016-031A,2024-01-20T11:26:20.648832,1.00272055,.0003863,0.0511,42.4515,285.2845,41.7102,0,U,41552,999,2790,0,-.117E-5,0
INTELSAT 31 (IS-31),2016-035A,2024-01-18T13:55:02.789760,1.00269990,.0001889,0.0129,103.6330,83.3794,44.1478,0,U,41581,999,2786,0,-.145E-5,0
BEIDOU-2 G7,2016-037A,2024-01-20T12:11:42.838944,1.00272286,.0009343,1.5518,67.3041,314.8368,30.7280,0,U,41586,999,2797,0,-.351E-5,0
ABS-2A (MONGOLSAT-1),2016-038A,2024-01-20T09:42:05.035680,1.00270828,.0001793,0.0089,57.8090,190.7668,90.9102,0,U,41588,999,2789,0,-.79E-6,0
