INMARSAT 5-F3           
1 40882U 15042A   24020.06704568  .00000055  00000+0  00000+0 0  9996
2 40882   0.0187  63.7385 0000183 270.8679 348.0566  1.00271091 30740
MUOS-4                  
1 40887U 15044A   24020.47584468 -.00000091  00000+0  00000+0 0  9994
2 40887   2.9204  28.3273 0055036 355.6424 341.6893  1.00271610 30745
BEIDOU-3S IGSO-2S       
1 40938U 15053A   24017.60469617 -.00000107  00000+0  00000+0 0  9998
2 40938  50.5932 269.1737 0046153 191.7705 325.9662  1.00252427 30519
SKY MUSTER 1 (NBN1A)    
1 40940U 15054A   24019.98741987 -.00000274  00000+0  00000+0 0  9993
2 40940   0.0137   8.5637 0001866 285.8744 320.1305  1.00271145 30444
ARSAT 2                 
1 40941U 15054B   24020.15048368 -.00000220  00000+0  00000+0 0  9999
2 40941   0.0467 286.2235 0002116 352.7050 173.2559  1.00276100 30504
APSTAR 9                
1 40982U 15059A   24020.57688067 -.00000262  00000+0  00000+0 0  9997
2 40982   0.0204  52.7909 0002862 197.8691 218.4686  1.00269388 30311
TURKSAT 4B              
1 40984U 15060A   24020.47088439  .00000120  00000+0  00000+0 0  9999
2 40984   0.0325 277.6416 0002333  12.8786  48.2979  1.00268926 30289
CHINASAT 2C (ZX 2C)     
1 41021U 15063A   24020.51924605 -.00000320  00000+0  00000+0 0  9997
2 41021   0.0400 218.1963 0003164 172.4375  19.0847  1.00273127 30181
GSAT-15                 
1 41028U 15065A   24019.62008123 -.00000253  00000+0  00000+0 0  9999
2 41028   0.0938 266.4220 0002010 350.9223 177.8563  1.00273532 30043
LAOSAT 1                
1 41034U 15067A   24020.53521556 -.00000339  00000+0  00000+0 0  9995
2 41034   0.0327 166.6468 0002755  93.2215 180.7002  1.00269460 30047
TELSTAR 12V             
1 41036U 15068A   24020.45783097 -.00000115  00000+0  00000+0 0  9991
2 41036   0.0147  72.1468 0002675 232.9542 324.0192  1.00271323 29813
ELEKTRO-L 2             
1 41105U 15074A   24020.38647230 -.00000116  00000+0  00000+0 0  9996
2 41105   4.4620  81.2680 0003637 195.1254 327.5176  1.00271188 29695
COSMOS 2513             
1 41121U 15075A   24020.47697597 -.00000134  00000+0  00000+0 0  9996
2 41121   0.0599 108.7208 0003026 188.3173  74.2400  1.00271652 29712
GAOFEN-4                
1 41194U 15083A   24020.51368890 -.00000330  00000+0  00000+0 0  9999
2 41194   0.1453  86.5495 0002153 148.7635 174.6410  1.00267591 29719
IRNSS-1E                
1 41241U 16003A   24018.61873488 -.00000315  00000+0  00000+0 0  9990
2 41241  31.2882  75.7390 0021818 189.5490 186.8229  1.00274643 29379
SES-9                   
1 41380U 16013A   24019.98124126 -.00000341  00000+0  00000+0 0  9993
2 41380   0.0404 281.3087 0000614  88.0987 210.9783  1.00271247 28628
EUTELSAT 65 WEST A      
1 41382U 16014A   24020.45244209 -.00000272  00000+0  00000+0 0  9998
2 41382   0.0849 307.0559 0002058 349.5999 280.3150  1.00273221 28730
IRNSS-1F                
1 41384U 16015A   24020.25254426  .00000160  00000+0  00000+0 0  9996
2 41384   3.2298 123.6583 0021499 184.9694 293.8293  1.00267503 28853
BEIDOU-2 IGSO-6         
1 41434U 16021A   24020.54204378 -.00000140  00000+0  00000+0 0  9991
2 41434  58.9528  46.8512 0049449 225.5940 135.1077  1.00256416 28670
IRNSS-1G                
1 41469U 16027A   24020.55834225 -.00000333  00000+0  00000+0 0  9990
2 41469   3.1142 125.0390 0003834 273.2787  51.5985  1.00276171 28368
JCSAT-2B                
1 41471U 16028A   24020.57133201 -.00000162  00000+0  00000+0 0  9992
2 41471   0.0156  69.1538 0001198 222.8069 187.1129  1.00269853 28318
THAICOM 8               
1 41552U 16031A   24020.47662788 -.00000117  00000+0  00000+0 0  9992
2 41552   0.0511  42.4515 0003863 285.2845  41.7102  1.00272055 27906
INTELSAT 31 (IS-31)     
1 41581U 16035A   24018.57989340 -.00000145  00000+0  00000+0 0  9993
2 41581   0.0129 103.6330 0001889  83.3794  44.1478  1.00269990 27866
BEIDOU-2 G7             
1 41586U 16037A   24020.50813471 -.00000351  00000+0  00000+0 0  9996
2 41586   1.5518  67.3041 0009343 314.8368  30.7280  1.00272286 27972
ABS-2A (MONGOLSAT-1)    
1 41588U 16038A   24020.40422495 -.00000079  00000+0  00000+0 0  9997
2 41588   0.0089  57.8090 0001793 190.7668  90.9102  1.00270828 27896
